XCUBE-1                 
1 62400U 24247Z   26068.48297321  .00009773  00000+0  36224-3 0  9994
2 62400  44.9938 117.7807 0005235 331.1499  28.9094 15.27910558 67702
STARLINK-35589          
1 66426U 25259E   26068.57538554  .00024330  00000+0  89058-3 0  9995
2 66426  42.9999 275.0108 0001843 261.7628  98.3015 15.27585849 19470
